[Satellite]
VERSION=1.1
NAME=CLUSTER II-FM6
NICKNAME=CLUSTER II-FM6
TLE1=1 26410U 00041A   17187.73066830  .00000084  00000-0  00000-0 0  9997
TLE2=2 26410 130.9682 333.1270 4434149 152.1341 359.3554  0.44239786 17587
